STARLINK-32234          
1 60414U 24141S   24239.91667824 -.00699490  00000+0 -41533-2 0  9996
2 60414  53.1525 326.0303 0000886  55.7656 177.6814 15.79149496  3834
STARLINK-32265          
1 60415U 24141T   24239.91667824 -.00710183  00000+0 -42386-2 0  9997
2 60415  53.1526 326.0233 0000913  61.5368 175.6328 15.79063833  3832
STARLINK-32197          
1 60416U 24141U   24239.91667824 -.00719256  00000+0 -43084-2 0  9994
2 60416  53.1524 326.0119 0000766  59.1540 183.1326 15.79008526  3778
STARLINK-32255          
1 60417U 24141V   24239.91667824 -.00728108  00000+0 -43784-2 0  9998
2 60417  53.1525 326.0055 0000884  55.0467 190.4252 15.78945361  3824
STARLINK-32236          
1 60418U 24141W   24239.91667824 -.00730392  00000+0 -43950-2 0  9992
2 60418  53.1524 326.0006 0000811  57.5534 190.0881 15.78937469  3837
CAPELLA-13 (ACADIA-3)   
1 60419U 24142A   24239.85402155  .00016599  00000+0  19175-2 0  9997
2 60419  53.0092  55.0286 0010210 333.6414  26.4045 14.85670636  2273
ELECTRON KICK STAGE R/B 
1 60420U 24142B   24239.85396400  .00007301  00000+0  86235-3 0  9997
2 60420  53.0065  55.0255 0012163 316.4071  43.5946 14.85525115  2246
ASBM A                  
1 60422U 24143A   24226.47652309  .00001141  00000+0  33572-3 0  9999
2 60422  62.3271  72.7173 4781748 267.8387  38.9297  5.93604593   107
ASBM B                  
1 60423U 24143B   24226.13933057  .00001178  00000+0  34422-3 0  9990
2 60423  62.3236  72.9413 4780777 267.8157  38.9560  5.93764773    69
FALCON 9 R/B            
1 60424U 24143C   24238.46469878  .00005109  00000+0  78829-3 0  9992
2 60424  62.3414  64.5420 4775777 267.8467  38.9853  5.99947401   793
STARLINK-32250          
1 60425U 24144A   24239.91667824 -.00574371  00000+0 -22633-2 0  9991
2 60425  53.1506 303.7175 0000561  86.7266 329.2170 15.87456921  3557
STARLINK-32226          
1 60426U 24144B   24239.91667824 -.00575306  00000+0 -22652-2 0  9992
2 60426  53.1510 303.7141 0000552  88.3012 329.4258 15.87474975  3360
STARLINK-32254          
1 60427U 24144C   24239.91667824 -.00587041  00000+0 -23060-2 0  9996
2 60427  53.1503 303.6890 0000635  72.3680 357.1470 15.87548378  3553
STARLINK-32193          
1 60428U 24144D   24239.91667824 -.00573663  00000+0 -22567-2 0  9993
2 60428  53.1507 303.7088 0000570  85.8591 334.2310 15.87489210  3554
STARLINK-32242          
1 60429U 24144E   24239.91667824 -.00586133  00000+0 -23042-2 0  9999
2 60429  53.1505 303.6960 0000558  85.7004 340.5945 15.87531321  3550
STARLINK-32196          
1 60430U 24144F   24239.91667824 -.00596320  00000+0 -23425-2 0  9995
2 60430  53.1505 303.6805 0000549  87.0508 346.6312 15.87569649  3474
STARLINK-32232          
1 60431U 24144G   24239.91667824 -.00579436  00000+0 -22785-2 0  9993
2 60431  53.1507 303.7024 0000610  75.0632 348.1416 15.87510197  3471
STARLINK-32246          
1 60432U 24144H   24239.91667824 -.00600117  00000+0 -23563-2 0  9990
2 60432  53.1506 303.6735 0000588  78.7253 358.4837 15.87587597  3471
STARLINK-32183          
1 60433U 24144J   24239.91667824 -.00603445  00000+0 -23680-2 0  9998
2 60433  53.1503 303.6696 0000558  88.3802 350.6290 15.87606954  3475
STARLINK-32233          
1 60434U 24144K   24239.91667824 -.00609682  00000+0 -23900-2 0  9993
2 60434  53.1504 303.6563 0000591  77.6502   7.8382 15.87641762  3474
STARLINK-32222          
1 60435U 24144L   24239.91667824 -.00607087  00000+0 -23812-2 0  9993
2 60435  53.1506 303.6624 0000568  83.9513 358.6140 15.87624413  3474
STARLINK-32229          
1 60436U 24144M   24239.91667824 -.00614863  00000+0 -24095-2 0  9998
2 60436  53.1501 303.6493 0000615  77.2248  11.4308 15.87660167  3474
STARLINK-32241          
1 60437U 24144N   24239.91667824 -.00624879  00000+0 -24492-2 0  9998
2 60437  53.1502 303.6413 0000528  87.2315   5.4675 15.87679817  3479
STARLINK-32240          
1 60438U 24144P   24239.91667824 -.00626680  00000+0 -24548-2 0  9993
2 60438  53.1501 303.6352 0000563  86.8454   8.8653 15.87695613  3553
STARLINK-32231          
1 60439U 24144Q   24239.91667824 -.00633572  00000+0 -24797-2 0  9998
2 60439  53.1501 303.6218 0000603  73.3211  28.8758 15.87728006  3553
STARLINK-32195          
1 60440U 24144R   24239.91667824 -.00633593  00000+0 -24816-2 0  9995
2 60440  53.1503 303.6283 0000542  91.5222   7.6225 15.87713764  3475
STARLINK-32177          
1 60441U 24144S   24239.91667824 -.00639626  00000+0 -25028-2 0  9995
2 60441  53.1503 303.6164 0000575  89.6208  15.2670 15.87746716  3474
STARLINK-32252          
1 60442U 24144T   24239.91667824 -.00653544  00000+0 -25552-2 0  9993
2 60442  53.1497 303.5954 0000562  77.8349  36.9036 15.87794586  3557
STARLINK-32237          
1 60443U 24144U   24239.91667824 -.00647620  00000+0 -25342-2 0  9999
2 60443  53.1500 303.6082 0000538  94.4863  14.0667 15.87764177  3375
STARLINK-32249          
1 60444U 24144V   24239.91667824 -.00661730  00000+0 -25855-2 0  9997
2 60444  53.1495 303.5825 0000576  87.0107  33.6221 15.87826298  3550
STARLINK-32228          
1 60445U 24144W   24239.91667824 -.00658415  00000+0 -25737-2 0  9993
2 60445  53.1498 303.5881 0000607  80.0575  38.0716 15.87809625  3556
STARLINK-32247          
1 60446U 24144X   24239.91667824 -.00666894  00000+0 -26051-2 0  9994
2 60446  53.1496 303.5760 0000613  77.8328  45.9050 15.87842232  3557
STARLINK-32101          
1 60447U 24144Y   24239.91667824 -.00652022  00000+0 -25508-2 0  9999
2 60447  53.1498 303.6008 0000548  88.4809  23.6264 15.87779028  3478
PROGRESS-MS 28          
1 60450U 24145A   24239.47949247  .00021960  00000+0  39001-3 0  9990
2 60450  51.6389 327.0815 0006501 277.0030  83.0220 15.50105378469454
LEGION 3                
1 60452U 24146A   24239.63627744  .00029902  00000+0  75557-3 0  9996
2 60452  44.9940 346.5145 0004075  53.1827 306.9434 15.39326394  1701
LEGION 4                
1 60453U 24146B   24239.91156321  .00001135  00000+0  28130-3 0  9999
2 60453  45.0408 349.5357 0004896 212.9453 147.1099 14.57475050  1651
EOS-08                  
1 60454U 24147A   24239.88512035  .00030148  00000+0  93993-3 0  9990
2 60454  37.3797 232.9544 0007454  62.4706 297.6810 15.32388539  1642
2024-147B               
1 60455U 24147B   24239.93416939  .00129350  00000+0  35577-2 0  9990
2 60455  37.3794 232.4207 0013523  85.9361 274.2945 15.35757846  1309
2024-147C               
1 60456U 24147C   24239.64462604  .00054368  00000+0  58931-3 0  9995
2 60456  36.9265 230.2619 0081288 340.9579  18.8149 15.58364044  1632
2024-147D               
1 60457U 24147D   24239.91653104  .00026992  00000+0  71128-3 0  9998
2 60457  37.3664 232.2618 0028616  78.8650 281.5326 15.37283227  1653
YAOGAN-43 01A           
1 60458U 24148A   24239.65306138  .00026399  00000+0  10774-2 0  9993
2 60458  35.0014 350.3725 0005401 352.1407   7.9223 15.23486163  1581
YAOGAN-43 01B           
1 60459U 24148B   24239.65169716  .00021826  00000+0  88676-3 0  9990
2 60459  34.9981 350.3617 0005318   1.1135 358.9591 15.23669346  1526
YAOGAN-43 01C           
1 60460U 24148C   24239.65075218  .00017230  00000+0  70735-3 0  9996
2 60460  35.0047 350.3524 0005952   5.7485 354.3297 15.23352548  1528
YAOGAN-43 01D           
1 60461U 24148D   24239.64912673  .00026409  00000+0  10577-2 0  9996
2 60461  34.9983 350.3400 0007231   9.1385 350.9461 15.24106507  1526
YAOGAN-43 01E           
1 60462U 24148E   24239.64991312  .00030911  00000+0  12401-2 0  9995
2 60462  34.9970 350.3474 0006278   5.4649 354.6134 15.24028484  1521
YAOGAN-43 01F           
1 60463U 24148F   24239.58558431  .00021215  00000+0  86032-3 0  9999
2 60463  35.0007 350.7689 0005256   7.6699 352.4095 15.23736305  1519
YAOGAN-43 01G           
1 60464U 24148G   24239.58487249  .00026700  00000+0  10756-2 0  9991
2 60464  35.0035 350.7628 0005719   9.0253 351.0564 15.23918956  1510
YAOGAN-43 01H           
1 60465U 24148H   24239.58382020  .00022071  00000+0  88699-3 0  9992
2 60465  35.0008 350.7539 0006970   6.9480 353.1331 15.24023990  1511
YAOGAN-43 01J           
1 60466U 24148J   24239.58339018  .00022017  00000+0  88332-3 0  9996
2 60466  35.0037 350.7502 0006782  11.9144 348.1730 15.24082242  1510
CZ-4B R/B               
1 60467U 24148K   24239.01267561  .00078338  00000+0  88400-3 0  9991
2 60467  35.0076 351.6999 0121831  88.9951 272.4729 15.52599892  1452
STARLINK-31844          
1 60583U 24150A   24239.91667824 -.00971313  00000+0 -45332-2 0  9991
2 60583  53.1574  34.3259 0000727  72.4737  45.5777 15.84944335  2239
STARLINK-32204          
1 60584U 24150B   24239.91667824 -.00977301  00000+0 -45512-2 0  9995
2 60584  53.1573  34.3232 0000850  89.2089  30.2319 15.85002759  2232
STARLINK-32130          
1 60585U 24150C   24239.91667824 -.00983885  00000+0 -45726-2 0  9997
2 60585  53.1573  34.3204 0000827  93.0872  27.7316 15.85060689  2075
STARLINK-32173          
1 60586U 24150D   24239.91667824 -.00992375  00000+0 -46019-2 0  9998
2 60586  53.1574  34.3165 0000897  90.6348  31.9273 15.85126095  2232
STARLINK-31911          
1 60587U 24150E   24239.91667824 -.00999612  00000+0 -46246-2 0  9992
2 60587  53.1571  34.3133 0001086  81.9036  42.3517 15.85190088  2110
STARLINK-31994          
1 60588U 24150F   24239.91667824 -.01006139  00000+0 -46454-2 0  9998
2 60588  53.1571  34.3103 0000825  89.6535  36.1133 15.85250156  2115
STARLINK-32169          
1 60589U 24150G   24239.91667824 -.01015663  00000+0 -46798-2 0  9992
2 60589  53.1571  34.3064 0000644  50.7479  76.8791 15.85317200  2235
STARLINK-32209          
1 60590U 24150H   24239.91667824 -.01023515  00000+0 -47060-2 0  9992
2 60590  53.1570  34.3034 0000792  91.8018  37.2860 15.85378430  2232
